{"type": "FeatureCollection", "features": [ {"type": "Feature", "properties": {"norad_id": 58662, "name": "TIANMU-1 21", "group": "weather", "lat": -37.724136560977264, "lon": 103.42485837103182, "alt_km": 475.3839532296506, "timestamp": "2025-12-10T05:46:13.440876+00:00", "meta": {"OBJECT_NAME": "TIANMU-1 21", "OBJECT_ID": "2023-208C", "EPOCH": "2025-12-09T18:57:33.729408", "MEAN_MOTION": 15.31450051, "ECCENTRICITY": 0.0005885, "INCLINATION": 97.4375, "RA_OF_ASC_NODE": 97.1731, "ARG_OF_PERICENTER": 272.6141, "MEAN_ANOMALY": 87.4426, "EPHEMERIS_TYPE": 0, "CLASSIFICATION_TYPE": "U", "NORAD_CAT_ID": 58662, "ELEMENT_SET_NO": 999, "REV_AT_EPOCH": 10854, "BSTAR": 0.00052935, "MEAN_MOTION_DOT": 0.00016023, "MEAN_MOTION_DDOT": 0}, "tle": {"line1": "1 58662U 23208C   25343.78997372  .00016023  00000+0  52935-3 0  9999", "line2": "2 58662  97.4375  97.1731 0005885 272.6141  87.4426 15.31450051108545"}}, "geometry": {"type": "Point", "coordinates": [103.42485837103182, -37.724136560977264]}}, {"type": "Feature", "properties": {"norad_id": 58663, "name": "TIANMU-1 22", "group": "weather", "lat": -77.90984935390037, "lon": 132.92744136049564, "alt_km": 488.74756060986783, "timestamp": "2025-12-10T05:46:13.440887+00:00", "meta": {"OBJECT_NAME": "TIANMU-1 22", "OBJECT_ID": "2023-208D", "EPOCH": "2025-12-09T17:32:40.532352", "MEAN_MOTION": 15.2752235, "ECCENTRICITY": 0.0002784, "INCLINATION": 97.4383, "RA_OF_ASC_NODE": 94.8347, "ARG_OF_PERICENTER": 302.1206, "MEAN_ANOMALY": 57.9763, "EPHEMERIS_TYPE": 0, "CLASSIFICATION_TYPE": "U", "NORAD_CAT_ID": 58663, "ELEMENT_SET_NO": 999, "REV_AT_EPOCH": 10837, "BSTAR": 0.00048664, "MEAN_MOTION_DOT": 0.00013038, "MEAN_MOTION_DDOT": 0}, "tle": {"line1": "1 58663U 23208D   25343.73102468  .00013038  00000+0  48664-3 0  9996", "line2": "2 58663  97.4383  94.8347 0002784 302.1206  57.9763 15.27522350108372"}}, "geometry": {"type": "Point", "coordinates": [132.92744136049564, -77.90984935390037]}}, {"type": "Feature", "properties": {"norad_id": 58700, "name": "TIANMU-1 15", "group": "weather", "lat": 73.49029241117492, "lon": 139.4701485127389, "alt_km": 487.0162298338746, "timestamp": "2025-12-10T05:46:13.440897+00:00", "meta": {"OBJECT_NAME": "TIANMU-1 15", "OBJECT_ID": "2024-004A", "EPOCH": "2025-12-09T19:59:26.314944", "MEAN_MOTION": 15.24619618, "ECCENTRICITY": 0.0005313, "INCLINATION": 97.4631, "RA_OF_ASC_NODE": 165.3133, "ARG_OF_PERICENTER": 310.9146, "MEAN_ANOMALY": 49.1631, "EPHEMERIS_TYPE": 0, "CLASSIFICATION_TYPE": "U", "NORAD_CAT_ID": 58700, "ELEMENT_SET_NO": 999, "REV_AT_EPOCH": 10690, "BSTAR": 0.00043374, "MEAN_MOTION_DOT": 0.00010639, "MEAN_MOTION_DDOT": 0}, "tle": {"line1": "1 58700U 24004A   25343.83294346  .00010639  00000+0  43374-3 0  9998", "line2": "2 58700  97.4631 165.3133 0005313 310.9146  49.1631 15.24619618106903"}}, "geometry": {"type": "Point", "coordinates": [139.4701485127389, 73.49029241117492]}}, {"type": "Feature", "properties": {"norad_id": 58701, "name": "TIANMU-1 16", "group": "weather", "lat": 20.47588743620569, "lon": -12.086053901576404, "alt_km": 495.4408647713517, "timestamp": "2025-12-10T05:46:13.440907+00:00", "meta": {"OBJECT_NAME": "TIANMU-1 16", "OBJECT_ID": "2024-004B", "EPOCH": "2025-12-09T19:37:16.591296", "MEAN_MOTION": 15.24370836, "ECCENTRICITY": 0.0004613, "INCLINATION": 97.457, "RA_OF_ASC_NODE": 164.6898, "ARG_OF_PERICENTER": 309.2998, "MEAN_ANOMALY": 50.783, "EPHEMERIS_TYPE": 0, "CLASSIFICATION_TYPE": "U", "NORAD_CAT_ID": 58701, "ELEMENT_SET_NO": 999, "REV_AT_EPOCH": 10690, "BSTAR": 0.00042548, "MEAN_MOTION_DOT": 0.00010356, "MEAN_MOTION_DDOT": 0}, "tle": {"line1": "1 58701U 24004B   25343.81755314  .00010356  00000+0  42548-3 0  9992", "line2": "2 58701  97.4570 164.6898 0004613 309.2998  50.7830 15.24370836106909"}}, "geometry": {"type": "Point", "coordinates": [-12.086053901576404, 20.47588743620569]}}, {"type": "Feature", "properties": {"norad_id": 58702, "name": "TIANMU-1 17", "group": "weather", "lat": -62.41790807970668, "lon": -29.008405789210293, "alt_km": 498.74787106939675, "timestamp": "2025-12-10T05:46:13.440920+00:00", "meta": {"OBJECT_NAME": "TIANMU-1 17", "OBJECT_ID": "2024-004C", "EPOCH": "2025-12-09T20:49:44.393952", "MEAN_MOTION": 15.24416725, "ECCENTRICITY": 0.0003832, "INCLINATION": 97.4604, "RA_OF_ASC_NODE": 165.1485, "ARG_OF_PERICENTER": 312.8291, "MEAN_ANOMALY": 47.2624, "EPHEMERIS_TYPE": 0, "CLASSIFICATION_TYPE": "U", "NORAD_CAT_ID": 58702, "ELEMENT_SET_NO": 999, "REV_AT_EPOCH": 10690, "BSTAR": 0.00045271, "MEAN_MOTION_DOT": 0.00011039, "MEAN_MOTION_DDOT": 0}, "tle": {"line1": "1 58702U 24004C   25343.86787493  .00011039  00000+0  45271-3 0  9996", "line2": "2 58702  97.4604 165.1485 0003832 312.8291  47.2624 15.24416725106904"}}, "geometry": {"type": "Point", "coordinates": [-29.008405789210293, -62.41790807970668]}}, {"type": "Feature", "properties": {"norad_id": 58703, "name": "TIANMU-1 18", "group": "weather", "lat": -24.899258991214626, "lon": 169.20217974478882, "alt_km": 496.19806083798903, "timestamp": "2025-12-10T05:46:13.440934+00:00", "meta": {"OBJECT_NAME": "TIANMU-1 18", "OBJECT_ID": "2024-004D", "EPOCH": "2025-12-09T20:25:40.790784", "MEAN_MOTION": 15.24405274, "ECCENTRICITY": 0.0003186, "INCLINATION": 97.4621, "RA_OF_ASC_NODE": 165.3266, "ARG_OF_PERICENTER": 314.0648, "MEAN_ANOMALY": 46.0327, "EPHEMERIS_TYPE": 0, "CLASSIFICATION_TYPE": "U", "NORAD_CAT_ID": 58703, "ELEMENT_SET_NO": 999, "REV_AT_EPOCH": 10690, "BSTAR": 0.00043977, "MEAN_MOTION_DOT": 0.00010716, "MEAN_MOTION_DDOT": 0}, "tle": {"line1": "1 58703U 24004D   25343.85116656  .00010716  00000+0  43977-3 0  9995", "line2": "2 58703  97.4621 165.3266 0003186 314.0648  46.0327 15.24405274106909"}}, "geometry": {"type": "Point", "coordinates": [169.20217974478882, -24.899258991214626]}}, {"type": "Feature", "properties": {"norad_id": 58990, "name": "INSAT-3DS", "group": "weather", "lat": -0.009044546239046374, "lon": -112.16004182850494, "alt_km": 35780.140811332276, "timestamp": "2025-12-10T05:46:13.440947+00:00", "meta": {"OBJECT_NAME": "INSAT-3DS", "OBJECT_ID": "2024-033A", "EPOCH": "2025-12-09T17:50:38.679072", "MEAN_MOTION": 1.00269592, "ECCENTRICITY": 0.0001628, "INCLINATION": 0.0271, "RA_OF_ASC_NODE": 105.5537, "ARG_OF_PERICENTER": 159.6721, "MEAN_ANOMALY": 163.2421, "EPHEMERIS_TYPE": 0, "CLASSIFICATION_TYPE": "U", "NORAD_CAT_ID": 58990, "ELEMENT_SET_NO": 999, "REV_AT_EPOCH": 4516, "BSTAR": 0, "MEAN_MOTION_DOT": -1.53e-06, "MEAN_MOTION_DDOT": 0}, "tle": {"line1": "1 58990U 24033A   25343.74350323 -.00000153  00000+0  00000+0 0  9995", "line2": "2 58990   0.0271 105.5537 0001628 159.6721 163.2421  1.00269592 45166"}}, "geometry": {"type": "Point", "coordinates": [-112.16004182850494, -0.009044546239046374]}}, {"type": "Feature", "properties": {"norad_id": 59051, "name": "METEOR-M2 4", "group": "weather", "lat": -13.72551069930927, "lon": -56.67409770150523, "alt_km": 816.8804899107472, "timestamp": "2025-12-10T05:46:13.440958+00:00", "meta": {"OBJECT_NAME": "METEOR-M2 4", "OBJECT_ID": "2024-039A", "EPOCH": "2025-12-09T21:23:39.240960", "MEAN_MOTION": 14.22400641, "ECCENTRICITY": 0.0007199, "INCLINATION": 98.6762, "RA_OF_ASC_NODE": 300.8451, "ARG_OF_PERICENTER": 6.6561, "MEAN_ANOMALY": 353.4712, "EPHEMERIS_TYPE": 0, "CLASSIFICATION_TYPE": "U", "NORAD_CAT_ID": 59051, "ELEMENT_SET_NO": 999, "REV_AT_EPOCH": 9235, "BSTAR": 6.5206e-05, "MEAN_MOTION_DOT": 1.02e-06, "MEAN_MOTION_DDOT": 0}, "tle": {"line1": "1 59051U 24039A   25343.89142640  .00000102  00000+0  65206-4 0  9994", "line2": "2 59051  98.6762 300.8451 0007199   6.6561 353.4712 14.22400641 92359"}}, "geometry": {"type": "Point", "coordinates": [-56.67409770150523, -13.72551069930927]}}, {"type": "Feature", "properties": {"norad_id": 60133, "name": "GOES 19", "group": "weather", "lat": -0.00030220752530126644, "lon": 90.59884308665677, "alt_km": 35790.93844193053, "timestamp": "2025-12-10T05:46:13.440971+00:00", "meta": {"OBJECT_NAME": "GOES 19", "OBJECT_ID": "2024-119A", "EPOCH": "2025-12-09T12:33:25.293024", "MEAN_MOTION": 1.00271399, "ECCENTRICITY": 0.0001348, "INCLINATION": 0.0188, "RA_OF_ASC_NODE": 159.4399, "ARG_OF_PERICENTER": 145.9183, "MEAN_ANOMALY": 246.3286, "EPHEMERIS_TYPE": 0, "CLASSIFICATION_TYPE": "U", "NORAD_CAT_ID": 60133, "ELEMENT_SET_NO": 999, "REV_AT_EPOCH": 506, "BSTAR": 0, "MEAN_MOTION_DOT": -2.46e-06, "MEAN_MOTION_DDOT": 0}, "tle": {"line1": "1 60133U 24119A   25343.52320941 -.00000246  00000+0  00000+0 0  9994", "line2": "2 60133   0.0188 159.4399 0001348 145.9183 246.3286  1.00271399  5063"}}, "geometry": {"type": "Point", "coordinates": [90.59884308665677, -0.00030220752530126644]}}, {"type": "Feature", "properties": {"norad_id": 65815, "name": "FENGYUN 3H", "group": "weather", "lat": -66.11045469489085, "lon": 83.76358323565803, "alt_km": 833.3010545862935, "timestamp": "2025-12-10T05:46:13.440982+00:00", "meta": {"OBJECT_NAME": "FENGYUN 3H", "OBJECT_ID": "2025-219A", "EPOCH": "2025-12-09T20:09:06.344064", "MEAN_MOTION": 14.19903525, "ECCENTRICITY": 6.03e-05, "INCLINATION": 98.6581, "RA_OF_ASC_NODE": 283.4931, "ARG_OF_PERICENTER": 86.0818, "MEAN_ANOMALY": 274.0427, "EPHEMERIS_TYPE": 0, "CLASSIFICATION_TYPE": "U", "NORAD_CAT_ID": 65815, "ELEMENT_SET_NO": 999, "REV_AT_EPOCH": 1051, "BSTAR": 0.00011413, "MEAN_MOTION_DOT": 1.99e-06, "MEAN_MOTION_DDOT": 0}, "tle": {"line1": "1 65815U 25219A   25343.83965676  .00000199  00000+0  11413-3 0  9992", "line2": "2 65815  98.6581 283.4931 0000603  86.0818 274.0427 14.19903525 10516"}}, "geometry": {"type": "Point", "coordinates": [83.76358323565803, -66.11045469489085]}}]}